{"type": "FeatureCollection", "features": [ {"type": "Feature", "properties": {"norad_id": 28659, "name": "DIRECTV 8", "group": "intelsat", "lat": 0.017734635203177068, "lon": 77.35919929401969, "alt_km": 35797.75045538585, "timestamp": "2025-12-27T06:41:30.566186+00:00", "meta": {"OBJECT_NAME": "DIRECTV 8", "OBJECT_ID": "2005-019A", "EPOCH": "2025-12-26T09:14:16.477152", "MEAN_MOTION": 1.00271765, "ECCENTRICITY": 0.0003134, "INCLINATION": 0.0135, "RA_OF_ASC_NODE": 57.3028, "ARG_OF_PERICENTER": 228.1398, "MEAN_ANOMALY": 189.2168, "EPHEMERIS_TYPE": 0, "CLASSIFICATION_TYPE": "U", "NORAD_CAT_ID": 28659, "ELEMENT_SET_NO": 999, "REV_AT_EPOCH": 7534, "BSTAR": 0, "MEAN_MOTION_DOT": 2.3e-07, "MEAN_MOTION_DDOT": 0}, "tle": {"line1": "1 28659U 05019A   25360.38491293  .00000023  00000+0  00000+0 0  9993", "line2": "2 28659   0.0135  57.3028 0003134 228.1398 189.2168  1.00271765 75343"}}, "geometry": {"type": "Point", "coordinates": [77.35919929401969, 0.017734635203177068]}}, {"type": "Feature", "properties": {"norad_id": 28702, "name": "GALAXY 28 (G-28)", "group": "intelsat", "lat": 1.6629203514832025, "lon": 116.24362845878711, "alt_km": 35702.820441729804, "timestamp": "2025-12-27T06:41:30.566198+00:00", "meta": {"OBJECT_NAME": "GALAXY 28 (G-28)", "OBJECT_ID": "2005-022A", "EPOCH": "2025-12-26T19:29:48.902784", "MEAN_MOTION": 1.00599554, "ECCENTRICITY": 0.00034373, "INCLINATION": 2.8558, "RA_OF_ASC_NODE": 81.118, "ARG_OF_PERICENTER": 161.1407, "MEAN_ANOMALY": 65.1225, "EPHEMERIS_TYPE": 0, "CLASSIFICATION_TYPE": "U", "NORAD_CAT_ID": 28702, "ELEMENT_SET_NO": 999, "REV_AT_EPOCH": 5024, "BSTAR": 0, "MEAN_MOTION_DOT": -2.34e-06, "MEAN_MOTION_DDOT": 0}, "tle": {"line1": "1 28702U 05022A   25360.81237156 -.00000234  00000+0  00000+0 0  9995", "line2": "2 28702   2.8558  81.1180 0003437 161.1407  65.1225  1.00599554 50245"}}, "geometry": {"type": "Point", "coordinates": [116.24362845878711, 1.6629203514832025]}}, {"type": "Feature", "properties": {"norad_id": 29236, "name": "GALAXY 16 (G-16)", "group": "intelsat", "lat": -0.004620010820796821, "lon": 97.37072697595373, "alt_km": 35797.58328643726, "timestamp": "2025-12-27T06:41:30.566210+00:00", "meta": {"OBJECT_NAME": "GALAXY 16 (G-16)", "OBJECT_ID": "2006-023A", "EPOCH": "2025-12-26T22:50:03.736032", "MEAN_MOTION": 1.00271352, "ECCENTRICITY": 0.00026867, "INCLINATION": 0.0398, "RA_OF_ASC_NODE": 205.9574, "ARG_OF_PERICENTER": 72.116, "MEAN_ANOMALY": 61.1203, "EPHEMERIS_TYPE": 0, "CLASSIFICATION_TYPE": "U", "NORAD_CAT_ID": 29236, "ELEMENT_SET_NO": 999, "REV_AT_EPOCH": 7124, "BSTAR": 0, "MEAN_MOTION_DOT": -1.04e-06, "MEAN_MOTION_DDOT": 0}, "tle": {"line1": "1 29236U 06023A   25360.95143213 -.00000104  00000+0  00000+0 0  9991", "line2": "2 29236   0.0398 205.9574 0002686  72.1160  61.1203  1.00271352 71243"}}, "geometry": {"type": "Point", "coordinates": [97.37072697595373, -0.004620010820796821]}}, {"type": "Feature", "properties": {"norad_id": 29494, "name": "DIRECTV 9S", "group": "intelsat", "lat": 0.4334058514352544, "lon": 95.17526137176462, "alt_km": 35799.15145135879, "timestamp": "2025-12-27T06:41:30.566221+00:00", "meta": {"OBJECT_NAME": "DIRECTV 9S", "OBJECT_ID": "2006-043A", "EPOCH": "2025-12-26T11:22:08.461920", "MEAN_MOTION": 1.00271472, "ECCENTRICITY": 0.000309, "INCLINATION": 1.9736, "RA_OF_ASC_NODE": 83.0647, "ARG_OF_PERICENTER": 197.4585, "MEAN_ANOMALY": 244.0274, "EPHEMERIS_TYPE": 0, "CLASSIFICATION_TYPE": "U", "NORAD_CAT_ID": 29494, "ELEMENT_SET_NO": 999, "REV_AT_EPOCH": 4965, "BSTAR": 0, "MEAN_MOTION_DOT": -9.2e-07, "MEAN_MOTION_DDOT": 0}, "tle": {"line1": "1 29494U 06043A   25360.47370905 -.00000092  00000+0  00000+0 0  9992", "line2": "2 29494   1.9736  83.0647 0003090 197.4585 244.0274  1.00271472 49656"}}, "geometry": {"type": "Point", "coordinates": [95.17526137176462, 0.4334058514352544]}}, {"type": "Feature", "properties": {"norad_id": 31307, "name": "GALAXY 17 (G-17)", "group": "intelsat", "lat": 1.2560554687983359, "lon": 111.33478539084457, "alt_km": 35805.609613362736, "timestamp": "2025-12-27T06:41:30.566233+00:00", "meta": {"OBJECT_NAME": "GALAXY 17 (G-17)", "OBJECT_ID": "2007-016B", "EPOCH": "2025-12-26T13:30:50.905152", "MEAN_MOTION": 1.00271679, "ECCENTRICITY": 0.0005635, "INCLINATION": 2.5327, "RA_OF_ASC_NODE": 82.127, "ARG_OF_PERICENTER": 174.459, "MEAN_ANOMALY": 316.4453, "EPHEMERIS_TYPE": 0, "CLASSIFICATION_TYPE": "U", "NORAD_CAT_ID": 31307, "ELEMENT_SET_NO": 999, "REV_AT_EPOCH": 6807, "BSTAR": 0, "MEAN_MOTION_DOT": -1.85e-06, "MEAN_MOTION_DDOT": 0}, "tle": {"line1": "1 31307U 07016B   25360.56308918 -.00000185  00000+0  00000+0 0  9997", "line2": "2 31307   2.5327  82.1270 0005635 174.4590 316.4453  1.00271679 68074"}}, "geometry": {"type": "Point", "coordinates": [111.33478539084457, 1.2560554687983359]}}, {"type": "Feature", "properties": {"norad_id": 31862, "name": "DIRECTV 10", "group": "intelsat", "lat": 0.006469997893567646, "lon": 93.65235093900252, "alt_km": 35786.23824225405, "timestamp": "2025-12-27T06:41:30.566244+00:00", "meta": {"OBJECT_NAME": "DIRECTV 10", "OBJECT_ID": "2007-032A", "EPOCH": "2025-12-25T09:09:15.831072", "MEAN_MOTION": 1.00280696, "ECCENTRICITY": 7.66e-05, "INCLINATION": 0.0126, "RA_OF_ASC_NODE": 126.575, "ARG_OF_PERICENTER": 111.4706, "MEAN_ANOMALY": 250.6263, "EPHEMERIS_TYPE": 0, "CLASSIFICATION_TYPE": "U", "NORAD_CAT_ID": 31862, "ELEMENT_SET_NO": 999, "REV_AT_EPOCH": 4385, "BSTAR": 0, "MEAN_MOTION_DOT": -8.3e-07, "MEAN_MOTION_DDOT": 0}, "tle": {"line1": "1 31862U 07032A   25359.38143323 -.00000083  00000+0  00000+0 0  9993", "line2": "2 31862   0.0126 126.5750 0000766 111.4706 250.6263  1.00280696 43852"}}, "geometry": {"type": "Point", "coordinates": [93.65235093900252, 0.006469997893567646]}}, {"type": "Feature", "properties": {"norad_id": 32253, "name": "INTELSAT 11 (IS-11)", "group": "intelsat", "lat": -3.094908124111647, "lon": -1.6993268447034255, "alt_km": 36141.28747848156, "timestamp": "2025-12-27T06:41:30.566256+00:00", "meta": {"OBJECT_NAME": "INTELSAT 11 (IS-11)", "OBJECT_ID": "2007-044B", "EPOCH": "2025-12-26T22:22:13.902240", "MEAN_MOTION": 0.99052995, "ECCENTRICITY": 0.0008662, "INCLINATION": 3.1152, "RA_OF_ASC_NODE": 80.8162, "ARG_OF_PERICENTER": 172.1534, "MEAN_ANOMALY": 341.5886, "EPHEMERIS_TYPE": 0, "CLASSIFICATION_TYPE": "U", "NORAD_CAT_ID": 32253, "ELEMENT_SET_NO": 999, "REV_AT_EPOCH": 6674, "BSTAR": 0, "MEAN_MOTION_DOT": -2.25e-06, "MEAN_MOTION_DDOT": 0}, "tle": {"line1": "1 32253U 07044B   25360.93210535 -.00000225  00000+0  00000+0 0  9992", "line2": "2 32253   3.1152  80.8162 0008662 172.1534 341.5886  0.99052995 66745"}}, "geometry": {"type": "Point", "coordinates": [-1.6993268447034255, -3.094908124111647]}}, {"type": "Feature", "properties": {"norad_id": 32388, "name": "HORIZONS-2", "group": "intelsat", "lat": 1.3965060169116696, "lon": 122.52343960318407, "alt_km": 35805.82684204998, "timestamp": "2025-12-27T06:41:30.566267+00:00", "meta": {"OBJECT_NAME": "HORIZONS-2", "OBJECT_ID": "2007-063B", "EPOCH": "2025-12-26T11:37:39.127296", "MEAN_MOTION": 1.00268933, "ECCENTRICITY": 0.0004863, "INCLINATION": 2.1553, "RA_OF_ASC_NODE": 82.8098, "ARG_OF_PERICENTER": 197.5129, "MEAN_ANOMALY": 275.5091, "EPHEMERIS_TYPE": 0, "CLASSIFICATION_TYPE": "U", "NORAD_CAT_ID": 32388, "ELEMENT_SET_NO": 999, "REV_AT_EPOCH": 6608, "BSTAR": 0, "MEAN_MOTION_DOT": -2.32e-06, "MEAN_MOTION_DDOT": 0}, "tle": {"line1": "1 32388U 07063B   25360.48448064 -.00000232  00000+0  00000+0 0  9990", "line2": "2 32388   2.1553  82.8098 0004863 197.5129 275.5091  1.00268933 66083"}}, "geometry": {"type": "Point", "coordinates": [122.52343960318407, 1.3965060169116696]}}, {"type": "Feature", "properties": {"norad_id": 32729, "name": "DIRECTV 11", "group": "intelsat", "lat": -0.021138490907221325, "lon": 97.07598557520184, "alt_km": 35791.128893097106, "timestamp": "2025-12-27T06:41:30.566279+00:00", "meta": {"OBJECT_NAME": "DIRECTV 11", "OBJECT_ID": "2008-013A", "EPOCH": "2025-12-24T22:53:59.758368", "MEAN_MOTION": 1.00260442, "ECCENTRICITY": 0.0001047, "INCLINATION": 0.0475, "RA_OF_ASC_NODE": 199.7105, "ARG_OF_PERICENTER": 11.4593, "MEAN_ANOMALY": 126.8496, "EPHEMERIS_TYPE": 0, "CLASSIFICATION_TYPE": "U", "NORAD_CAT_ID": 32729, "ELEMENT_SET_NO": 999, "REV_AT_EPOCH": 4384, "BSTAR": 0, "MEAN_MOTION_DOT": -1.03e-06, "MEAN_MOTION_DDOT": 0}, "tle": {"line1": "1 32729U 08013A   25358.95416387 -.00000103  00000+0  00000+0 0  9994", "line2": "2 32729   0.0475 199.7105 0001047  11.4593 126.8496  1.00260442 43842"}}, "geometry": {"type": "Point", "coordinates": [97.07598557520184, -0.021138490907221325]}}, {"type": "Feature", "properties": {"norad_id": 32951, "name": "GALAXY 18 (G-18)", "group": "intelsat", "lat": 0.033064946561372634, "lon": 73.40017055111205, "alt_km": 35797.94440808407, "timestamp": "2025-12-27T06:41:30.566291+00:00", "meta": {"OBJECT_NAME": "GALAXY 18 (G-18)", "OBJECT_ID": "2008-024A", "EPOCH": "2025-12-26T22:43:19.382304", "MEAN_MOTION": 1.00271977, "ECCENTRICITY": 0.00032739, "INCLINATION": 0.0161, "RA_OF_ASC_NODE": 356.4765, "ARG_OF_PERICENTER": 287.4522, "MEAN_ANOMALY": 29.5856, "EPHEMERIS_TYPE": 0, "CLASSIFICATION_TYPE": "U", "NORAD_CAT_ID": 32951, "ELEMENT_SET_NO": 999, "REV_AT_EPOCH": 4412, "BSTAR": 0, "MEAN_MOTION_DOT": 4.7e-07, "MEAN_MOTION_DDOT": 0}, "tle": {"line1": "1 32951U 08024A   25360.94675211  .00000047  00000+0  00000+0 0  9994", "line2": "2 32951   0.0161 356.4765 0003273 287.4522  29.5856  1.00271977 44121"}}, "geometry": {"type": "Point", "coordinates": [73.40017055111205, 0.033064946561372634]}}]}